OBJECT_NAME,OBJECT_ID,EPOCH,MEAN_MOTION,ECCENTRICITY,INCLINATION,RA_OF_ASC_NODE,ARG_OF_PERICENTER,MEAN_ANOMALY,EPHEMERIS_TYPE,CLASSIFICATION_TYPE,NORAD_CAT_ID,ELEMENT_SET_NO,REV_AT_EPOCH,BSTAR,MEAN_MOTION_DOT,MEAN_MOTION_DDOT
INTELSAT 17 (IS-17),2010-065B,2026-06-13T01:29:23.749152,1.00271000,.00025574,0.0089,95.8537,353.1526,260.7197,0,U,37238,999,5320,0,.12E-6,0
BEIDOU-2 IGSO-2,2010-068A,2026-06-11T15:08:58.718688,1.00285295,.00554439,47.5583,271.9034,212.3317,110.6962,0,U,37256,999,5673,0,-.226E-5,0
EUTELSAT KA-SAT 9A,2010-069A,2026-06-12T16:39:47.410272,1.00271597,.00037818,0.0607,9.7943,123.4996,26.6875,0,U,37258,999,4396,0,.76E-6,0
HISPASAT 30W-5,2010-070A,2026-06-13T06:09:58.900608,1.00272802,.00050573,0.0478,140.6779,321.1445,222.2384,0,U,37264,999,5314,0,-.203E-5,0
KOREASAT 6,2010-070B,2026-06-13T05:21:29.755584,1.00270184,.00020002,0.0261,359.3093,94.2708,48.2174,0,U,37265,999,5673,0,0,0
BEIDOU-2 IGSO-3,2011-013A,2026-06-10T17:11:36.843360,1.00268972,.00343535,62.3981,40.2143,184.2630,40.3873,0,U,37384,999,5559,0,-.195E-5,0
INTELSAT 28 (IS-28),2011-016A,2026-06-13T06:09:28.949184,1.00270661,.00036054,1.7957,82.6670,4.4676,235.1051,0,U,37392,999,5324,0,-.214E-5,0
YAHSAT 1A,2011-016B,2026-06-12T23:42:55.514592,1.00273639,.00027874,0.0216,356.0632,94.7576,218.7048,0,U,37393,999,4236,0,0,0
SBIRS GEO-1 (USA 230),2011-019A,2026-06-12T16:52:06.596832,1.00271888,.00017037,4.5258,53.1234,28.9656,123.7708,0,U,37481,999,5535,0,.11E-5,0
TELSTAR 14R,2011-021A,2026-06-13T05:29:43.427040,1.00270262,.00021722,0.0179,357.3892,58.8807,224.7070,0,U,37602,999,5579,0,-.267E-5,0
GSAT-8,2011-022A,2026-06-13T01:26:16.548000,1.00272117,.00023511,2.1200,81.8704,204.5094,51.6413,0,U,37605,999,5317,0,.96E-6,0
ST-2,2011-022B,2026-06-13T01:35:38.150592,1.00271669,.00015001,0.0234,347.3049,102.2711,283.7134,0,U,37606,999,5523,0,0,0
ZHONGXING-10,2011-026A,2026-06-13T01:34:53.222592,1.00269117,.00033451,1.0348,84.2711,3.0918,283.2517,0,U,37677,999,5495,0,-.175E-5,0
SES-3,2011-035A,2026-06-13T06:16:46.483104,1.00272882,.00022888,1.3163,83.1269,352.7001,176.9474,0,U,37748,999,5455,0,-.9E-6,0
KAZSAT-2,2011-035B,2026-06-13T01:35:15.686592,1.00272726,.00010775,0.0308,246.5571,271.1954,213.9566,0,U,37749,999,5335,0,-.185E-5,0
BEIDOU-2 IGSO-4,2011-038A,2026-06-11T23:34:21.681696,1.00285652,.01593513,54.5997,165.7200,231.3459,310.0324,0,U,37763,999,5459,0,.9E-6,0
ASTRA 1N,2011-041A,2026-06-13T06:23:57.562080,1.00269729,.00060077,0.0893,41.9657,51.3140,283.5014,0,U,37775,999,4448,0,.132E-5,0
BSAT-3C (JCSAT-110R),2011-041B,2026-06-12T15:25:56.521920,1.00268884,.00007165,0.0151,349.5277,195.8328,57.0396,0,U,37776,999,5042,0,-.336E-5,0
PAKSAT-1R,2011-042A,2026-06-13T03:04:02.263008,1.00276569,.00030037,0.6780,84.6295,348.9900,271.9109,0,U,37779,999,5443,0,.166E-5,0
SES-2,2011-049A,2026-06-13T05:53:38.164704,1.00271107,.00026541,0.0546,107.2940,334.3818,181.3019,0,U,37809,999,5392,0,-.183E-5,0
ARABSAT-5C,2011-049B,2026-06-13T06:24:12.537792,1.00270043,.00033659,0.0493,7.5409,91.5239,278.5654,0,U,37810,999,5399,0,.136E-5,0
EUTELSAT 7 WEST A,2011-051A,2026-06-13T06:16:28.278624,1.00271078,.00040316,0.0618,5.1221,89.5059,253.7487,0,U,37816,999,5383,0,-.48E-6,0
QUETZSAT 1,2011-054A,2026-06-13T06:31:15.928032,1.00271385,.00025291,0.0141,15.9925,67.8068,198.6142,0,U,37826,999,4983,0,-.229E-5,0
INTELSAT 18 (IS-18),2011-056A,2026-06-13T05:27:14.204736,1.00271666,.00020305,0.0212,287.9079,171.5968,63.8594,0,U,37834,999,5377,0,.66E-6,0
EUTELSAT 16A,2011-057A,2026-06-13T06:23:05.144928,1.00272765,.00059551,0.0439,9.5448,75.5870,288.2090,0,U,37836,999,729,0,.116E-5,0
VIASAT-1,2011-059A,2026-06-12T22:55:05.348928,1.00271119,.00020715,0.0185,335.4643,103.3691,51.1114,0,U,37843,999,4728,0,-.1E-6,0
ASIASAT 7,2011-069A,2026-06-13T02:17:38.609664,1.00273768,.00012749,0.0184,59.9435,352.6020,348.7813,0,U,37933,999,4481,0,-.321E-5,0
BEIDOU-2 IGSO-5,2011-073A,2026-06-12T18:45:55.627776,1.00273641,.01137811,47.6870,271.6014,221.6023,141.1385,0,U,37948,999,5309,0,-.165E-5,0
LUCH-5A,2011-074B,2026-06-12T12:16:56.928864,1.00269773,.00021837,8.7416,73.8760,22.9645,155.2063,0,U,37951,999,5300,0,-.42E-6,0
NIGCOMSAT 1R,2011-077A,2026-06-13T06:30:41.915808,1.00273555,.00023693,0.0466,145.3615,202.4544,53.9537,0,U,38014,999,5291,0,.157E-5,0
WGS F4 (USA 233),2012-003A,2026-06-12T22:10:30.398016,1.00269475,.00007896,0.0238,1.4410,288.3823,32.4574,0,U,38070,999,4410,0,0,0
SES-4,2012-007A,2026-06-12T16:31:03.248256,1.00271497,.00026127,0.0258,29.9762,62.6924,34.1072,0,U,38087,999,5218,0,-.154E-5,0
BEIDOU-2 G5,2012-008A,2026-06-12T23:44:40.348032,1.00270831,.00091722,3.5618,69.7250,273.6885,332.7240,0,U,38091,999,5232,0,.68E-6,0
MUOS-1,2012-009A,2026-06-13T05:49:46.989408,1.00270343,.00587617,5.4684,47.1593,1.5386,200.3199,0,U,38093,999,5240,0,-.119E-5,0
INTELSAT 22 (IS-22),2012-011A,2026-06-13T03:07:21.778752,1.00271146,.00015507,0.0359,47.3972,49.6985,283.2726,0,U,38098,999,714,0,0,0
APSTAR-7,2012-013A,2026-06-13T01:32:23.462016,1.00270598,.00025346,0.0192,340.8329,112.3098,267.8237,0,U,38107,999,5176,0,0,0
YAHSAT 1B,2012-016A,2026-06-12T18:47:38.626080,1.00274125,.0002256,0.0931,91.0473,13.7288,125.8356,0,U,38245,999,4556,0,.14E-5,0
AEHF-2 (USA 235),2012-019A,2026-06-13T01:05:48.213024,1.00270074,.00023869,6.6416,57.5198,15.6043,188.1492,0,U,38254,999,694,0,-.128E-5,0
JCSAT-13,2012-023A,2026-06-13T06:53:52.782144,1.00270456,.00029789,0.0166,345.1637,125.2643,18.6552,0,U,38331,999,5150,0,-.344E-5,0
VINASAT-2,2012-023B,2026-06-12T17:14:54.033216,1.00269459,.00022035,0.0139,352.2553,103.2824,196.0770,0,U,38332,999,4661,0,-.315E-5,0
NIMIQ 6,2012-026A,2026-06-13T05:52:30.772704,1.00270829,.00024739,0.0260,292.7418,149.3220,176.5297,0,U,38342,999,5037,0,-.161E-5,0
ZHONGXING-2A,2012-028A,2026-06-13T02:25:38.788032,1.00271963,.00038266,1.4423,83.9492,43.8992,268.2336,0,U,38352,999,5125,0,-.281E-5,0
INTELSAT 19 (IS-19),2012-030A,2026-06-13T05:23:14.588160,1.00270472,.00028414,0.0169,1.8153,87.5693,58.9687,0,U,38356,999,5041,0,-.44E-6,0
ECHOSTAR 17,2012-035A,2026-06-12T22:57:20.132928,1.00270047,.00018908,0.0188,7.2271,69.8254,61.4606,0,U,38551,999,5102,0,-.62E-6,0
METEOSAT-10 (MSG-3),2012-035B,2026-06-13T01:10:33.055680,1.00276114,.00014325,4.6614,61.0366,329.1787,249.0801,0,U,38552,999,5081,0,.5E-7,0
SES-5,2012-036A,2026-06-12T14:56:01.187808,1.00270611,.00018371,0.0481,313.4804,129.1395,47.3120,0,U,38652,999,4441,0,.48E-6,0
INTELSAT 20 (IS-20),2012-043A,2026-06-13T01:30:08.677152,1.00271762,.0001701,0.0008,59.8337,114.4985,178.1115,0,U,38740,999,5070,0,-.12E-6,0
HYLAS 2,2012-043B,2026-06-12T21:24:30.584160,1.00271682,.00024569,2.4157,81.1183,25.0844,43.5835,0,U,38741,999,5073,0,-.245E-5,0
INTELSAT 21 (IS-21),2012-045A,2026-06-13T06:23:47.472288,1.00271590,.00012724,0.0129,300.3552,156.5692,202.6119,0,U,38749,999,5048,0,-.272E-5,0
ASTRA 2F,2012-051A,2026-06-12T13:20:00.408192,1.00274324,.00017429,0.0744,259.7878,280.5991,308.7273,0,U,38778,999,4109,0,.165E-5,0
GSAT-10,2012-051B,2026-06-13T01:34:15.782880,1.00270460,.00077924,0.0913,263.6760,183.2206,281.0783,0,U,38779,999,5005,0,-.151E-5,0
INTELSAT 23 (IS-23),2012-057A,2026-06-13T06:22:04.675296,1.00267508,.00001312,0.0136,334.9892,222.9904,106.1003,0,U,38867,999,4991,0,-.272E-5,0
BEIDOU-2 G6,2012-059A,2026-06-12T20:26:31.873920,1.00273022,.00097233,4.4090,73.5707,324.5872,253.6772,0,U,38953,999,4986,0,-.165E-5,0
LUCH-5B,2012-061A,2026-06-12T23:23:12.366816,1.00272671,.00023465,10.4721,49.9205,149.8007,36.0976,0,U,38977,999,4956,0,-.133E-5,0
YAMAL 300K,2012-061B,2026-06-13T13:04:38.508096,1.00270939,.0001368,0.0179,299.6663,292.6943,48.6265,0,U,38978,999,4959,0,.82E-6,0
STAR ONE C3,2012-062A,2026-06-13T05:31:25.468896,1.00271926,.00021565,0.0241,61.6821,33.0820,174.6552,0,U,38991,999,4972,0,-.237E-5,0
EUTELSAT 21B,2012-062B,2026-06-13T06:24:42.490080,1.00273257,.00030727,0.0660,3.8023,76.8981,298.6429,0,U,38992,999,4978,0,.142E-5,0
ECHOSTAR 16,2012-065A,2026-06-12T19:45:05.644800,1.00270199,.00019915,0.0047,69.8365,10.8676,55.2229,0,U,39008,999,4960,0,-.268E-5,0
ZHONGXING-12,2012-067A,2026-06-13T13:34:08.261760,1.00272752,.000282,0.0293,86.6427,349.6112,116.6428,0,U,39017,999,4947,0,-.196E-5,0
EUTELSAT 70B,2012-069A,2026-06-13T01:30:38.630304,1.00271246,.00039727,0.0624,6.9113,67.7617,279.8558,0,U,39020,999,4946,0,-.3E-6,0
YAMAL 402,2012-070A,2026-06-13T01:26:09.059712,1.00269471,.00036159,1.2540,84.2086,357.6242,255.9910,0,U,39022,999,4935,0,.99E-6,0
SKYNET 5D,2012-075A,2026-06-13T01:25:39.108288,1.00268626,.00034452,0.0691,340.7320,109.8914,244.9677,0,U,39034,999,4911,0,.113E-5,0
MEXSAT 3,2012-075B,2026-06-13T04:47:38.730912,1.00275517,.00007627,0.0181,20.1175,30.9801,167.5695,0,U,39035,999,701,0,-.14E-6,0
TDRS 11,2013-004A,2026-06-13T07:45:57.032928,1.00268125,.00055854,3.5153,31.2006,18.6878,153.8607,0,U,39070,999,4665,0,.88E-6,0
AMAZONAS 3,2013-006A,2026-06-13T06:01:07.251168,1.00273799,.00017724,0.0388,233.4137,254.1978,163.2158,0,U,39078,999,4487,0,-.27E-5,0
AZERSPACE 1,2013-006B,2026-06-13T03:06:17.047008,1.00273674,.00013867,0.0101,315.6916,166.9621,231.3798,0,U,39079,999,4876,0,.146E-5,0
SBIRS GEO-2 (USA 241),2013-011A,2026-06-13T01:08:26.723328,1.00271513,.00022474,4.4811,52.5089,21.4120,154.7526,0,U,39120,999,4849,0,-.277E-5,0
EUTELSAT 117 WEST A,2013-012A,2026-06-13T05:56:27.923424,1.00270594,.00026719,0.0124,341.5248,100.0106,152.3452,0,U,39122,999,4839,0,0,0
ANIK G1,2013-014A,2026-06-13T05:47:53.716416,1.00270575,.00014966,0.0167,325.5864,109.2314,166.4064,0,U,39127,999,4821,0,-.61E-6,0
ZHONGXING-11,2013-020A,2026-06-13T02:25:38.788032,1.00270977,.00021288,0.0462,60.7436,15.9883,319.0248,0,U,39157,999,4785,0,-.277E-5,0
EUTELSAT 7B,2013-022A,2026-06-13T06:20:27.896928,1.00272038,.00046652,0.0738,20.6647,15.1258,327.9051,0,U,39163,999,4790,0,.6E-6,0
WGS F5 (USA 243),2013-024A,2026-06-12T21:30:15.033312,1.00270294,.0000303,0.0050,21.3014,270.1232,239.8539,0,U,39168,999,4713,0,-.271E-5,0
